{
    "links": {
        "self": "http://www.neowsapp.com/rest/v1/neo/3774568?api_key=iIulBulltgU6a56xZRHN4H3l9WmuAYTsLGpBGhQ2"
    },
    "id": "3774568",
    "neo_reference_id": "3774568",
    "name": "(2017 JZ1)",
    "designation": "2017 JZ1",
    "nasa_jpl_url": "http://ssd.jpl.nasa.gov/sbdb.cgi?sstr=3774568",
    "absolute_magnitude_h": 24.2,
    "estimated_diameter": {
        "kilometers": {
            "estimated_diameter_min": 0.0384197891,
            "estimated_diameter_max": 0.0859092601
        },
        "meters": {
            "estimated_diameter_min": 38.4197891064,
            "estimated_diameter_max": 85.9092601232
        },
        "miles": {
            "estimated_diameter_min": 0.0238729428,
            "estimated_diameter_max": 0.0533815229
        },
        "feet": {
            "estimated_diameter_min": 126.0491808919,
            "estimated_diameter_max": 281.8545369825
        }
    },
    "is_potentially_hazardous_asteroid": false,
    "close_approach_data": [
        {
            "close_approach_date": "2017-05-01",
            "close_approach_date_full": "2017-May-01 03:21",
            "epoch_date_close_approach": 1493608860000,
            "relative_velocity": {
                "kilometers_per_second": "12.6139868942",
                "kilometers_per_hour": "45410.3528190786",
                "miles_per_hour": "28216.2272836103"
            },
            "miss_distance": {
                "astronomical": "0.0548567384",
                "lunar": "21.3392712376",
                "kilometers": "8206451.219787208",
                "miles": "5099252.3325031504"
            },
            "orbiting_body": "Earth"
        },
        {
            "close_approach_date": "2018-11-29",
            "close_approach_date_full": "2018-Nov-29 06:21",
            "epoch_date_close_approach": 1543472460000,
            "relative_velocity": {
                "kilometers_per_second": "25.0858572222",
                "kilometers_per_hour": "90309.0859998343",
                "miles_per_hour": "56114.5540202859"
            },
            "miss_distance": {
                "astronomical": "0.4950144962",
                "lunar": "192.5606390218",
                "kilometers": "74053114.250643094",
                "miles": "46014471.4759549372"
            },
            "orbiting_body": "Earth"
        }
    ],
    "orbital_data": {
        "orbit_id": "4",
        "orbit_determination_date": "2017-05-18 06:20:44",
        "first_observation_date": "2017-05-04",
        "last_observation_date": "2017-05-18",
        "data_arc_in_days": 14,
        "observations_used": 32,
        "orbit_uncertainty": "8",
        "minimum_orbit_intersection": ".0459327",
        "jupiter_tisserand_invariant": "4.419",
        "epoch_osculation": "2457878.5",
        "eccentricity": ".4286681356312742",
        "semi_major_axis": "1.500696948307547",
        "inclination": "11.38434935727403",
        "ascending_node_longitude": "49.74547930586079",
        "orbital_period": "671.4874898599774",
        "perihelion_distance": ".8573959853290077",
        "perihelion_argument": "104.7807080093681",
        "aphelion_distance": "2.143997911286085",
        "perihelion_time": "2457825.244321822257",
        "mean_anomaly": "28.55160287198404",
        "mean_motion": ".5361231674994711",
        "equinox": "J2000",
        "orbit_class": {
            "orbit_class_type": "APO",
            "orbit_class_description": "Near-Earth asteroid orbits which cross the Earth’s orbit similar to that of 1862 Apollo",
            "orbit_class_range": "a (semi-major axis) > 1.0 AU; q (perihelion) < 1.017 AU"
        }
    },
    "is_sentry_object": false
}